ONEWEB-0694             
1 56722U 23068N   23294.93762492  .00003020  00000+0  41113-3 0  9990
2 56722  86.7215  77.1788 0016243  49.2880 310.9748 14.78344321 22966
ONEWEB-0696             
1 56723U 23068P   23294.94150867  .00000116  00000+0  22368-3 0  9993
2 56723  88.1005  92.0269 0002966  54.4120 305.7294 13.28961084 21908
ONEWEB-0703             
1 56724U 23068Q   23294.90678370  .00000175  00000+0  43162-3 0  9994
2 56724  87.8511  92.2376 0002675  67.0593 293.0820 13.15551936 21810
ONEWEB-0721             
1 56725U 23068R   23294.91573793  .00003407  00000+0  41207-3 0  9998
2 56725  86.6743  75.9898 0012354  48.7716 311.4570 14.83370900 23028
